KUIPER-00176            
1 65788U 25217AC  25324.33335648 -.01096268  00000+0 -47711-1 0  9996
2 65788  51.8760 173.1372 0002950 239.2884  62.6669 15.24784052  5210
KUIPER-00101            
1 65947U 25228A   25324.33335648 -.00799919  00000+0 -37839-1 0  9997
2 65947  51.8872 129.3056 0004988 275.9490 127.9870 15.21540051  4478
KUIPER-00113            
1 65948U 25228B   25324.33335648  .00079314  00000+0  25192-2 0  9996
2 65948  51.8801 128.4852 0005760 266.4687 154.3010 15.31929551  5532
KUIPER-00117            
1 65949U 25228C   25324.33335648 -.00784427  00000+0 -32320-1 0  9997
2 65949  51.8798 128.7767 0008382 275.2376 352.2269 15.26059522  5915
KUIPER-00121            
1 65950U 25228D   25323.87628914  .00041185  00000+0  11949-2 0  9998
2 65950  51.8786 130.8167 0005724 284.3499  75.6851 15.35100516  6909
KUIPER-00122            
1 65951U 25228E   25324.33335648  .00070104  00000+0  36974-2 0  9998
2 65951  51.8832 130.1022 0005837 305.7553  76.6242 15.14898179  5594
KUIPER-00123            
1 65952U 25228F   25324.33335648 -.00671082  00000+0 -38287-1 0  9991
2 65952  51.8894 130.1171 0006058 290.2930  19.0788 15.14623554  3891
KUIPER-00124            
1 65953U 25228G   25323.88170448  .00041162  00000+0  12136-2 0  9990
2 65953  51.8790 130.8490 0004290 303.8611  56.1966 15.34600426  6901
